{
  "type": "FeatureCollection",
  "features": [
    {
      "type": "Feature",
      "properties": {
        "norad_id": 66663,
        "name": "KSLV-II R/B",
        "group": "last-30-days",
        "lat": -6.096165996013895,
        "lon": -90.29591148510781,
        "alt_km": 547.036298983352,
        "timestamp": "2025-12-07T11:27:48.741984+00:00",
        "meta_object_name": "KSLV-II R/B",
        "meta_object_id": "2025-274P",
        "meta_epoch": "2025-12-06T19:27:04.446432",
        "meta_mean_motion": 14.97226496,
        "meta_eccentricity": 0.00484111,
        "meta_inclination": 97.7412,
        "meta_ra_of_asc_node": 268.2109,
        "meta_arg_of_pericenter": 339.2416,
        "meta_mean_anomaly": 20.6839,
        "meta_ephemeris_type": 0,
        "meta_classification_type": "U",
        "meta_norad_cat_id": 66663,
        "meta_element_set_no": 999,
        "meta_rev_at_epoch": 152,
        "meta_bstar": 0.00053388811,
        "meta_mean_motion_dot": 6.269e-05,
        "meta_mean_motion_ddot": 0,
        "tle_line1": "1 66663U 25274P   25340.81046813  .00006269  00000+0  53389-3 0  9995",
        "tle_line2": "2 66663  97.7412 268.2109 0048411 339.2416  20.6839 14.97226496  1529"
      },
      "geometry": {
        "type": "Point",
        "coordinates": [
          -90.29591148510781,
          -6.096165996013895
        ]
      }
    },
    {
      "type": "Feature",
      "properties": {
        "norad_id": 66664,
        "name": "SOYUZ-MS 28",
        "group": "last-30-days",
        "lat": 2.180591228731871,
        "lon": -13.197320578706082,
        "alt_km": 417.08945276965915,
        "timestamp": "2025-12-07T11:27:48.741995+00:00",
        "meta_object_name": "SOYUZ-MS 28",
        "meta_object_id": "2025-275A",
        "meta_epoch": "2025-12-06T20:46:13.238400",
        "meta_mean_motion": 15.49374779,
        "meta_eccentricity": 0.00034973,
        "meta_inclination": 51.6304,
        "meta_ra_of_asc_node": 171.5636,
        "meta_arg_of_pericenter": 213.1314,
        "meta_mean_anomaly": 146.9456,
        "meta_ephemeris_type": 0,
        "meta_classification_type": "U",
        "meta_norad_cat_id": 66664,
        "meta_element_set_no": 999,
        "meta_rev_at_epoch": 128,
        "meta_bstar": 0.00025393652,
        "meta_mean_motion_dot": 0.0001375,
        "meta_mean_motion_ddot": 0,
        "tle_line1": "1 66664U 25275A   25340.86543100  .00013750  00000+0  25394-3 0  9991",
        "tle_line2": "2 66664  51.6304 171.5636 0003497 213.1314 146.9456 15.49374779  1288"
      },
      "geometry": {
        "type": "Point",
        "coordinates": [
          -13.197320578706082,
          2.180591228731871
        ]
      }
    },
    {
      "type": "Feature",
      "properties": {
        "norad_id": 66820,
        "name": "KOMPSAT-7",
        "group": "last-30-days",
        "lat": 53.70734204476613,
        "lon": -83.08013247132686,
        "alt_km": 573.4951790834893,
        "timestamp": "2025-12-07T11:27:48.742005+00:00",
        "meta_object_name": "KOMPSAT-7",
        "meta_object_id": "2025-279A",
        "meta_epoch": "2025-12-06T20:47:47.040288",
        "meta_mean_motion": 14.98355753,
        "meta_eccentricity": 0.00094981,
        "meta_inclination": 97.6393,
        "meta_ra_of_asc_node": 286.8524,
        "meta_arg_of_pericenter": 242.4762,
        "meta_mean_anomaly": 117.5496,
        "meta_ephemeris_type": 0,
        "meta_classification_type": "U",
        "meta_norad_cat_id": 66820,
        "meta_element_set_no": 999,
        "meta_rev_at_epoch": 77,
        "meta_bstar": 0.00039334363,
        "meta_mean_motion_dot": 4.634e-05,
        "meta_mean_motion_ddot": 0,
        "tle_line1": "1 66820U 25279A   25340.86651667  .00004634  00000+0  39334-3 0  9997",
        "tle_line2": "2 66820  97.6393 286.8524 0009498 242.4762 117.5496 14.98355753   770"
      },
      "geometry": {
        "type": "Point",
        "coordinates": [
          -83.08013247132686,
          53.70734204476613
        ]
      }
    },
    {
      "type": "Feature",
      "properties": {
        "norad_id": 66877,
        "name": "ZQ-3 R/B",
        "group": "last-30-days",
        "lat": 24.619552880458976,
        "lon": -119.73760704342193,
        "alt_km": 410.3342910865249,
        "timestamp": "2025-12-07T11:27:48.742016+00:00",
        "meta_object_name": "ZQ-3 R/B",
        "meta_object_id": "2025-282A",
        "meta_epoch": "2025-12-06T23:05:26.334240",
        "meta_mean_motion": 14.44698688,
        "meta_eccentricity": 0.08406531,
        "meta_inclination": 56.9538,
        "meta_ra_of_asc_node": 79.5521,
        "meta_arg_of_pericenter": 210.066,
        "meta_mean_anomaly": 144.9465,
        "meta_ephemeris_type": 0,
        "meta_classification_type": "U",
        "meta_norad_cat_id": 66877,
        "meta_element_set_no": 999,
        "meta_rev_at_epoch": 55,
        "meta_bstar": 0.00024476681,
        "meta_mean_motion_dot": 0.01121977,
        "meta_mean_motion_ddot": 7.252501e-06,
        "tle_line1": "1 66877U 25282A   25340.96211035  .01121977  72525-5  24477-3 0  9995",
        "tle_line2": "2 66877  56.9538  79.5521 0840653 210.0660 144.9465 14.44698688   553"
      },
      "geometry": {
        "type": "Point",
        "coordinates": [
          -119.73760704342193,
          24.619552880458976
        ]
      }
    },
    {
      "type": "Feature",
      "properties": {
        "norad_id": 66906,
        "name": "1998-067XS",
        "group": "last-30-days",
        "lat": -7.623883100188219,
        "lon": -5.406318958742874,
        "alt_km": 415.0942393685373,
        "timestamp": "2025-12-07T11:27:48.742028+00:00",
        "meta_object_name": "1998-067XS",
        "meta_object_id": "1998-067XS",
        "meta_epoch": "2025-12-06T22:16:16.867200",
        "meta_mean_motion": 15.50144102,
        "meta_eccentricity": 0.00041468,
        "meta_inclination": 51.6299,
        "meta_ra_of_asc_node": 171.2315,
        "meta_arg_of_pericenter": 177.6061,
        "meta_mean_anomaly": 182.4948,
        "meta_ephemeris_type": 0,
        "meta_classification_type": "U",
        "meta_norad_cat_id": 66906,
        "meta_element_set_no": 999,
        "meta_rev_at_epoch": 71,
        "meta_bstar": 0.00061899955,
        "meta_mean_motion_dot": 0.00035216,
        "meta_mean_motion_ddot": 0,
        "tle_line1": "1 66906U 98067XS  25340.92797300  .00035216  00000+0  61900-3 0  9993",
        "tle_line2": "2 66906  51.6299 171.2315 0004146 177.6061 182.4948 15.50144102   711"
      },
      "geometry": {
        "type": "Point",
        "coordinates": [
          -5.406318958742874,
          -7.623883100188219
        ]
      }
    },
    {
      "type": "Feature",
      "properties": {
        "norad_id": 66907,
        "name": "1998-067XT",
        "group": "last-30-days",
        "lat": -10.26786314510993,
        "lon": -3.249125990172652,
        "alt_km": 413.48350090601616,
        "timestamp": "2025-12-07T11:27:48.742038+00:00",
        "meta_object_name": "1998-067XT",
        "meta_object_id": "1998-067XT",
        "meta_epoch": "2025-12-06T22:15:35.290656",
        "meta_mean_motion": 15.50498848,
        "meta_eccentricity": 0.00052114,
        "meta_inclination": 51.6299,
        "meta_ra_of_asc_node": 171.2284,
        "meta_arg_of_pericenter": 194.7186,
        "meta_mean_anomaly": 165.3652,
        "meta_ephemeris_type": 0,
        "meta_classification_type": "U",
        "meta_norad_cat_id": 66907,
        "meta_element_set_no": 999,
        "meta_rev_at_epoch": 71,
        "meta_bstar": 0.001226899,
        "meta_mean_motion_dot": 0.00071486,
        "meta_mean_motion_ddot": 0,
        "tle_line1": "1 66907U 98067XT  25340.92749179  .00071486  00000+0  12269-2 0  9997",
        "tle_line2": "2 66907  51.6299 171.2284 0005211 194.7186 165.3652 15.50498848   710"
      },
      "geometry": {
        "type": "Point",
        "coordinates": [
          -3.249125990172652,
          -10.26786314510993
        ]
      }
    },
    {
      "type": "Feature",
      "properties": {
        "norad_id": 66908,
        "name": "1998-067XU",
        "group": "last-30-days",
        "lat": -10.920055081430858,
        "lon": -2.7103186877613714,
        "alt_km": 413.2810092205582,
        "timestamp": "2025-12-07T11:27:48.742051+00:00",
        "meta_object_name": "1998-067XU",
        "meta_object_id": "1998-067XU",
        "meta_epoch": "2025-12-06T22:15:23.816736",
        "meta_mean_motion": 15.50551079,
        "meta_eccentricity": 0.00054036,
        "meta_inclination": 51.6296,
        "meta_ra_of_asc_node": 171.2272,
        "meta_arg_of_pericenter": 194.2976,
        "meta_mean_anomaly": 165.7861,
        "meta_ephemeris_type": 0,
        "meta_classification_type": "U",
        "meta_norad_cat_id": 66908,
        "meta_element_set_no": 999,
        "meta_rev_at_epoch": 71,
        "meta_bstar": 0.0011470427,
        "meta_mean_motion_dot": 0.00066891,
        "meta_mean_motion_ddot": 0,
        "tle_line1": "1 66908U 98067XU  25340.92735899  .00066891  00000+0  11470-2 0  9999",
        "tle_line2": "2 66908  51.6296 171.2272 0005403 194.2976 165.7861 15.50551079   712"
      },
      "geometry": {
        "type": "Point",
        "coordinates": [
          -2.7103186877613714,
          -10.920055081430858
        ]
      }
    }
  ]
}